EUTELSAT 7A             
1 28187U 04008A   25310.25921813  .00000113  00000+0  00000+0 0  9993
2 28187   5.2625  74.6583 0001379 177.8664 107.3585  1.00267998 79119
EUTELSAT 174A           
1 28924U 05052A   25310.18239249  .00000020  00000+0  00000+0 0  9996
2 28924   3.6524  79.2779 0006640 148.9951  57.0575  1.00271145 50095
EUTELSAT HOTBIRD 13B    
1 29270U 06032A   25310.18342572  .00000166  00000+0  00000+0 0  9995
2 29270   1.0823  84.6625 0003878 140.6910 279.4346  1.00272034 45074
EUTELSAT HOTBIRD 13C    
1 33459U 08065A   25302.32591028 -.00000088  00000+0  00000+0 0  9990
2 33459   2.3523  81.9104 0006142 154.2398 266.6285  1.00271861 45032
EUTELSAT 36B            
1 36101U 09065A   25310.26641942  .00000121  00000+0  00000+0 0  9998
2 36101   0.0466 349.9692 0006502 241.5517 320.6677  1.00273901 58477
EUTELSAT KA-SAT 9A      
1 37258U 10069A   25309.32241992  .00000074  00000+0  00000+0 0  9991
2 37258   0.0601 317.2283 0002361 221.6462 351.0837  1.00272648 41760
EUTELSAT 7 WEST A       
1 37816U 11051A   25310.17536567 -.00000050  00000+0  00000+0 0  9998
2 37816   0.0821  38.0988 0006580 177.3533 246.0431  1.00271492 51644
EUTELSAT 16A            
1 37836U 11057A   25310.28308719  .00000114  00000+0  00000+0 0  9994
2 37836   0.0637 351.1337 0005681 241.9955 290.5730  1.00273163  5096
